BEESAT-4                
1 41619U 16040W   23084.13277818  .00079420  00000+0  15405-2 0  9994
2 41619  97.1719 133.7438 0007621 175.3571 184.7752 15.47361857363824
RAVAN                   
1 41849U 16067B   23083.91960223  .00014062  00000+0  10075-2 0  9991
2 41849  98.0238 234.9794 0017390 112.3959 247.9110 15.04382439348093
CELTEE 1                
1 41850U 16067C   23083.36448332  .00026655  00000+0  21030-2 0  9998
2 41850  98.0410 228.4138 0005405 158.3157 201.8296 15.00686490347690
OPTICUBE 04             
1 41851U 16067D   23083.92169032  .00005960  00000+0  49422-3 0  9990
2 41851  98.0301 227.5432 0008795 133.0975 227.0985 14.99184755347701
AEROCUBE 8D             
1 41852U 16067E   23084.15380190  .00010916  00000+0  86126-3 0  9996
2 41852  98.0440 228.1941 0004924 144.5209 215.6342 15.00905677347757
AEROCUBE 8C             
1 41853U 16067F   23083.94077655  .00010959  00000+0  86562-3 0  9993
2 41853  98.0330 227.7140 0008683  86.2246 273.9970 15.00839804347719
PROMETHEUS 2-1          
1 41854U 16067G   23083.91281786  .00017906  00000+0  13020-2 0  9990
2 41854  98.0551 230.0223 0018410 138.7155 221.5465 15.03754271347811
PROMETHEUS 2-3          
1 41855U 16067H   23083.90506475  .00018020  00000+0  13128-2 0  9992
2 41855  98.0458 229.9631 0015544 148.8044 211.4106 15.03720706347818
INS-1B                  
1 41954U 17008G   23084.13173001  .00070366  00000+0  14138-2 0  9992
2 41954  97.2124 144.5531 0003859 295.1306  64.9544 15.46397003339841
DIDO-2                  
1 42000U 17008BE  23084.11878684  .00032210  00000+0  91689-3 0  9995
2 42000  97.2131 141.6894 0005394 348.1205  11.9911 15.36039178339019
PEASSS                  
1 42015U 17008BV  23084.13223649  .00054339  00000+0  11820-2 0  9992
2 42015  97.2195 147.7576 0002482 323.5941  36.5138 15.44134735339858
AL-FARABI 1             
1 42016U 17008BW  23084.12806604  .00112508  00000+0  16514-2 0  9998
2 42016  97.2255 153.1657 0001946 271.9614  88.1418 15.55122050340275
NAYIF-1 (EO-88)         
1 42017U 17008BX  23084.15890952  .00120567  00000+0  17254-2 0  9997
2 42017  97.2228 153.2872 0002096 284.2314  75.8708 15.55785433340317
UCLSAT                  
1 42765U 17036A   23084.05284883  .00055911  00000+0  12734-2 0  9995
2 42765  97.1556 124.0371 0007644  51.4307 308.7624 15.42730575320282
LITUANICASAT-2          
1 42768U 17036D   23084.12513680  .00962214  42157-3  24538-2 0  9997
2 42768  97.1494 132.9997 0004805 259.0760 100.9976 15.95440278320685
AALTO-1                 
1 42775U 17036L   23084.05087579  .00027357  00000+0  87831-3 0  9993
2 42775  97.1636 116.6659 0012027  56.1687 304.0698 15.32200837319620
URSA MAIOR              
1 42776U 17036M   23083.81288030  .00032133  00000+0  98777-3 0  9991
2 42776  97.1645 117.5559 0011480  55.3593 304.8731 15.33562708319646
COMPASS 2               
1 42777U 17036N   23083.91030829  .00136505  00000+0  19280-2 0  9993
2 42777  97.1588 128.5426 0004128  33.6778 326.4739 15.56081123320308
DIAMOND RED             
1 42783U 17036U   23084.07170829  .00035763  00000+0  10199-2 0  9997
2 42783  97.1629 120.8017 0009689  58.5688 301.6503 15.35927156319860
PEGASUS                 
1 42784U 17036V   23083.82753247  .00048080  00000+0  11876-2 0  9990
2 42784  97.1599 122.6324 0008599  54.1741 306.0303 15.40310166319960
DIAMOND GREEN           
1 42785U 17036W   23084.05048321  .00040031  00000+0  11206-2 0  9992
2 42785  97.1624 120.8953 0009385  60.6029 299.6151 15.36486609319850
DIAMOND BLUE            
1 42786U 17036X   23084.05777948  .00037942  00000+0  10705-2 0  9997
2 42786  97.1628 120.8786 0009636  58.9933 301.2256 15.36250527319856
NUDTSAT                 
1 42787U 17036Y   23084.08810715  .00251932  00000+0  29314-2 0  9994
2 42787  97.1567 130.7137 0003227  38.1324  19.0475 15.60869440320332
SUCHAI                  
1 42788U 17036Z   23084.07254012  .00070134  00000+0  14319-2 0  9998
2 42788  97.1582 125.7064 0006586  49.1615 311.0205 15.45914505320252
SKCUBE                  
1 42789U 17036AA  23083.66704054  .00082256  00000+0  18470-2 0  9999
2 42789  97.1588 124.2154 0007404  51.3684 308.8226 15.43042666320046
VZLUSAT-1               
1 42790U 17036AB  23083.63789949  .00243387  00000+0  29806-2 0  9993
2 42790  97.1547 130.0791 0003090  41.7137 318.4355 15.59549629320406
ROBUSTA 1B              
1 42792U 17036AD  23083.84199656  .00066899  00000+0  14072-2 0  9998
2 42792  97.1580 125.3225 0006579  51.2931 308.8906 15.45052080320148
CICERO 6                
1 42793U 17036AE  23084.09773334  .00031903  00000+0  94184-3 0  9999
2 42793  97.1617 121.1465 0008766  59.3373 300.8734 15.34872159319985
CORVUS BC2              
1 42846U 17042X   23084.10009100  .00005660  00000+0  53278-3 0  9990
2 42846  97.3937 290.1912 0010131 130.6122 229.5982 14.94183684310165
CORVUS BC1              
1 42847U 17042Y   23083.82862455  .00005585  00000+0  52448-3 0  9993
2 42847  97.3935 290.2821 0009767 130.3095 229.8981 14.94281404310131
MIRATA                  
1 43015U 17073C   23083.95464391  .00022780  00000+0  14892-2 0  9992
2 43015  97.6439 334.2844 0218604 335.6649  23.4365 14.90208914288939
MAKERSAT 0              
1 43016U 17073D   23083.63116761  .00027189  00000+0  18704-2 0  9997
2 43016  97.6448 332.5866 0231278 344.5029  14.9185 14.86641873288742
CORVUS BC3              
1 43118U 18004H   23084.14814556  .00033105  00000+0  98125-3 0  9990
2 43118  97.3293 158.7875 0008814  91.5110 268.7143 15.34738579289137
MICROMAS-2A             
1 43131U 18004W   23084.17622578  .00882205  00000+0  29911-2 0  9998
2 43131  97.3305 173.5390 0005796 279.4548  80.6068 15.87836158290006
CICERO 7                
1 43143U 18004AJ  23084.15694934  .00051218  00000+0  10204-2 0  9991
2 43143  97.3463 169.1018 0004746  86.0164 274.1628 15.46724951289734
GOMX-4B                 
1 43196U 18015E   23083.92170635  .00024815  00000+0  76744-3 0  9997
2 43196  97.5671 232.5337 0015889 145.5785 214.6490 15.33366824286026
GOMX-4A                 
1 43197U 18015F   23084.16743419  .00034082  00000+0  96424-3 0  9995
2 43197  97.5650 234.4851 0015436 142.2183 270.0642 15.36116729286182
AEROCUBE 12A            
1 43556U 18046C   23083.82929031  .00192467  00000+0  17255-2 0  9992
2 43556  51.6257 239.7688 0008929 303.9057  56.1089 15.67118177262732
AEROCUBE 12B            
1 43557U 18046D   23083.75187252  .00124891  00000+0  17402-2 0  9996
2 43557  51.6313 253.4182 0007206 298.8199  61.2068 15.55982576262490
CUBEBEL-1 (BSUSAT-1)    
1 43666U 18083E   23084.21261190  .00047712  00000+0  15028-2 0  9992
2 43666  97.3909 115.6053 0011470  70.5036 354.2532 15.32698616244314
CICERO 10               
1 43690U 18088A   23084.18378058  .00030078  00000+0  94743-3 0  9991
2 43690  85.0305 129.2194 0012430 175.4357 184.7006 15.32695770242598
PROXIMA I               
1 43694U 18088E   23084.14540119  .00031656  00000+0  93053-3 0  9996
2 43694  85.0235 125.1808 0016321 145.1042 215.1281 15.34826383242861
PROXIMA II              
1 43696U 18088G   23084.15347551  .00031068  00000+0  91560-3 0  9992
2 43696  85.0236 125.2130 0016381 145.2875 214.9447 15.34746186242867
FACSAT-1                
1 43721U 18096C   23084.17171166  .00200766  00000+0  21318-2 0  9995
2 43721  97.3158 171.7014 0005923 117.5528 333.4752 15.63397155241303
SIRION PATHFINDER-2     
1 43759U 18099B   23084.11619533  .00007602  00000+0  64600-3 0  9994
2 43759  97.5808 148.2051 0014108  45.9013 314.3368 14.98062157235038
CORVUS BC4              
1 43767U 18099K   23084.11497030  .00008235  00000+0  71050-3 0  9999
2 43767  97.5759 146.2889 0012149  53.3020 306.9316 14.97468723234940
MOVE-II                 
1 43780U 18099Y   23083.67965798  .00024296  00000+0  18598-2 0  9997
2 43780  97.5757 149.5772 0010766  80.6795 279.5647 15.01822495235045
SPACEBEE-7              
1 43816U 18099BL  23083.66836852  .00021567  00000+0  16860-2 0  9992
2 43816  97.5978 150.2270 0015058  26.9802 333.2202 15.01003678234625
SPACEBEE-5              
1 43817U 18099BM  23084.19138763  .00045919  00000+0  27038-2 0  9994
2 43817  97.5990 156.3921 0003213  35.1732 324.9709 15.11452002234982
SPACEBEE-6              
1 43818U 18099BN  23083.92886587  .00024337  00000+0  17728-2 0  9995
2 43818  97.5979 152.2103 0012628  45.7559 314.4701 15.03683778234894
SHIELDS 1               
1 43850U 18104B   23083.85775119  .00015547  00000+0  58425-3 0  9991
2 43850  85.0288 225.7746 0012061 314.9468  45.0797 15.26981916237238
STF-1                   
1 43852U 18104D   23083.88101279  .00043249  00000+0  11893-2 0  9993
2 43852  85.0278 224.6007 0010971 313.5211  46.5126 15.36954716237428
ZACUBE-2                
1 43907U 18111AH  23084.25068440  .00042379  00000+0  12037-2 0  9990
2 43907  97.1502 326.0409 0016815 150.1782 335.0957 15.35920879236246
LUME 1                  
1 43908U 18111AJ  23084.13929019  .00044938  00000+0  10928-2 0  9996
2 43908  97.1530 328.9037 0015725 139.1319 221.1110 15.40708492236425
MOVE-IIB                
1 44398U 19038N   23083.88689996  .00051434  00000+0  16522-2 0  9992
2 44398  97.6595  63.2480 0013473 220.5562 139.4676 15.32025820205724
SONATE                  
1 44400U 19038Q   23083.85620896  .00017449  00000+0  82576-3 0  9998
2 44400  97.6778  59.9247 0019244 241.9094 118.0195 15.19260459205423
LUCKY-7                 
1 44406U 19038W   23083.87930782  .00022677  00000+0  10081-2 0  9994
2 44406  97.6753  60.9335 0017708 236.7862 123.1676 15.21382591205493
BEESAT 9                
1 44412U 19038AC  23083.92357867  .00034179  00000+0  13435-2 0  9990
2 44412  97.6702  62.0943 0014084 235.0157 124.9758 15.25506425205291
JAISAT-1                
1 44419U 19038F   23083.89213168  .00034428  00000+0  13386-2 0  9990
2 44419  97.6703  63.1018 0013408 230.9134 129.0912 15.25877298205660
